ACS3                    
1 59588U 24077B   24249.71795508  .00030801  00000+0  35929-1 0  9998
2 59588  97.4090 299.1745 0029638 236.4889 123.3430 13.68188925 18412
